OBJECT_NAME,OBJECT_ID,EPOCH,MEAN_MOTION,ECCENTRICITY,INCLINATION,RA_OF_ASC_NODE,ARG_OF_PERICENTER,MEAN_ANOMALY,EPHEMERIS_TYPE,CLASSIFICATION_TYPE,NORAD_CAT_ID,ELEMENT_SET_NO,REV_AT_EPOCH,BSTAR,MEAN_MOTION_DOT,MEAN_MOTION_DDOT
DUBAISAT-1,2009-041B,2026-06-27T20:58:58.594656,14.75140059,.00112061,98.0062,312.0154,42.8188,317.3892,0,U,35682,999,90667,.13725241E-3,.876E-5,0
OCEANSAT-2,2009-051A,2026-06-27T22:08:18.265632,13.99660970,.00160904,98.2319,164.7026,203.9386,156.1034,0,U,35931,999,88083,-.13169402E-3,-.23E-5,0
WORLDVIEW-2 (WV-2),2009-055A,2026-06-27T22:47:27.870432,14.37902319,.00043947,98.4764,252.2514,174.5496,185.5739,0,U,35946,999,87719,.58883285E-4,.134E-5,0
SMOS,2009-059A,2026-06-27T23:04:18.818688,14.39778134,.0001316,98.4425,6.1384,88.1098,272.0241,0,U,36036,999,87500,.92116587E-4,.245E-5,0
YAOGAN-7,2009-069A,2026-06-27T22:05:44.817504,14.78019988,.00248116,98.0060,64.7209,8.0777,352.0829,0,U,36110,999,89121,.71392259E-4,.465E-5,0
TANDEM-X,2010-030A,2026-06-27T12:47:34.901376,15.19147586,.00017253,97.4451,186.0918,94.3710,265.7721,0,U,36605,999,88821,.3908899E-4,.754E-5,0
CARTOSAT-2B,2010-035A,2026-06-27T23:07:53.591808,14.78674049,.00120897,97.9954,229.4449,149.5998,210.5916,0,U,36795,999,86144,.10115982E-3,.69E-5,0
YAOGAN-10,2010-038A,2026-06-27T23:42:19.840032,14.85380543,.00017233,97.8976,202.3057,85.1526,298.1773,0,U,36834,999,85881,.15665122E-3,.1294E-4,0
COSMO-SKYMED 4,2010-060A,2026-06-27T23:24:34.106400,14.82153050,.00014598,97.8886,2.4191,84.9578,275.1801,0,U,37216,999,84616,.35563576E-4,.231E-5,0
RESOURCESAT-2,2011-015A,2026-06-27T22:16:16.789440,14.21602255,.00105869,98.7640,246.2955,221.6440,138.3932,0,U,37387,999,78770,.59885075E-4,.87E-6,0
HAIYANG-2A,2011-043A,2026-06-27T23:01:21.889632,13.74024895,.00049488,99.3393,181.3941,69.5031,290.6649,0,U,37781,999,74813,.36319083E-4,-.9E-7,0
RASAT,2011-044D,2026-06-27T22:56:39.681312,14.68175433,.00210207,98.0579,270.1887,154.6725,321.7931,0,U,37791,999,79476,.67780907E-4,.342E-5,0
SRMSAT,2011-058D,2026-06-27T19:37:19.453728,14.11577638,.00117313,19.9735,355.1269,321.2874,66.8702,0,U,37841,999,75932,.56564008E-4,.369E-5,0
PLEIADES 1A,2011-076F,2026-06-27T23:39:48.760992,14.58536657,.00017652,98.1979,253.9437,89.2106,83.8086,0,U,38012,999,77356,.41439726E-4,.147E-5,0
ZIYUAN 1-02C (ZY 1-02C),2011-079A,2026-06-27T22:48:10.444896,14.38222562,.00051274,98.4074,246.0336,278.1122,255.1399,0,U,38038,999,76075,.10812728E-3,.285E-5,0
ARIRANG-3 (KOMPSAT-3),2012-025B,2026-06-27T23:33:27.913248,14.62215236,.0006806,98.1175,136.2554,82.5399,277.6576,0,U,38338,999,75292,.94199072E-4,.428E-5,0
EXACTVIEW-1 (ADS-1B),2012-039C,2026-06-27T20:14:27.079872,14.24987556,.00116574,98.9789,296.4748,137.1539,223.0550,0,U,38709,999,72422,.62989684E-4,.101E-5,0
SPOT 6,2012-047A,2026-06-27T23:14:22.378848,14.58528126,.0001325,98.2122,246.1512,75.7342,284.4004,0,U,38755,999,73462,.45668305E-4,.166E-5,0
PLEIADES 1B,2012-068A,2026-06-27T22:02:42.103104,14.58566268,.00017256,98.1950,253.8224,85.3314,274.8082,0,U,39019,999,72241,.49051146E-4,.182E-5,0
GOKTURK 2,2012-073A,2026-06-27T22:20:24.678816,14.75555390,.00012034,97.6817,15.8240,58.9335,301.1993,0,U,39030,999,72609,.16480226E-3,.1076E-4,0
LANDSAT 8,2013-008A,2026-06-27T22:38:20.453856,14.57101199,.00013556,98.2299,248.9507,93.7004,266.4350,0,U,39084,999,69946,.75826132E-4,.296E-5,0
SARAL,2013-009A,2026-06-27T22:25:40.032768,14.32858429,.00007553,98.5557,5.3655,223.9447,136.1677,0,U,39086,999,69714,.45536698E-4,.81E-6,0
GAOFEN-1,2013-018A,2026-06-27T23:21:49.731264,14.76548832,.00159381,97.9097,250.8224,228.5177,131.4666,0,U,39150,999,70983,.13114191E-3,.865E-5,0
VNREDSAT 1,2013-021B,2026-06-27T22:47:43.095840,14.64867117,.00017272,97.9081,231.9530,84.7501,275.3899,0,U,39160,999,70186,.97721218E-4,.477E-5,0
ARIRANG-5 (KOMPSAT-5),2013-042A,2026-06-27T22:34:23.188224,15.04518736,.00051117,97.6188,5.4892,97.2731,262.9076,0,U,39227,999,70547,.16024579E-3,.2184E-4,0
SKYSAT-A,2013-066C,2026-06-27T15:22:32.401056,15.13027728,.0019644,97.3811,227.7046,278.4995,81.4010,0,U,39418,999,69006,.15023881E-3,.2601E-4,0
DUBAISAT-2,2013-066D,2026-06-27T22:29:18.417408,15.10257317,.00111395,97.4558,168.7995,6.3050,353.8317,0,U,39419,999,68801,.22767293E-3,.3667E-4,0
GPM-CORE,2014-009C,2026-06-27T19:51:23.481504,15.44791073,.00114286,64.9722,272.4862,255.8241,104.1630,0,U,39574,999,69945,.21709891E-3,.10001E-3,0
SENTINEL-1A,2014-016A,2026-06-27T23:54:19.329120,14.59198286,.00013743,98.1778,186.3708,83.5686,276.5670,0,U,39634,999,65159,.22017902E-4,.58E-6,0
KAZEOSAT 1,2014-024A,2026-06-27T23:37:36.498144,14.42083396,.00012241,98.3209,251.1633,75.8797,284.2529,0,U,39731,999,64011,.12911228E-4,0,0
