DUBAISAT-1              
1 35682U 09041B   26178.87428929  .00000876  00000+0  13725-3 0  9992
2 35682  98.0062 312.0154 0011206  42.8188 317.3892 14.75140059906675
OCEANSAT-2              
1 35931U 09051A   26178.92243363 -.00000230  00000+0 -13169-3 0  9991
2 35931  98.2319 164.7026 0016090 203.9386 156.1034 13.99660970880835
WORLDVIEW-2 (WV-2)      
1 35946U 09055A   26178.94962813  .00000134  00000+0  58883-4 0  9995
2 35946  98.4764 252.2514 0004394 174.5496 185.5739 14.37902319877193
SMOS                    
1 36036U 09059A   26178.96132892  .00000245  00000+0  92117-4 0  9999
2 36036  98.4425   6.1384 0001316  88.1098 272.0241 14.39778134875004
YAOGAN-7                
1 36110U 09069A   26178.92065761  .00000465  00000+0  71392-4 0  9995
2 36110  98.0060  64.7209 0024811   8.0777 352.0829 14.78019988891214
TANDEM-X                
1 36605U 10030A   26178.53304284  .00000754  00000+0  39089-4 0  9995
2 36605  97.4451 186.0918 0001725  94.3710 265.7721 15.19147586888218
CARTOSAT-2B             
1 36795U 10035A   26178.96381472  .00000690  00000+0  10116-3 0  9999
2 36795  97.9954 229.4449 0012089 149.5998 210.5916 14.78674049861441
YAOGAN-10               
1 36834U 10038A   26178.98772963  .00001294  00000+0  15665-3 0  9992
2 36834  97.8976 202.3057 0001723  85.1526 298.1773 14.85380543858819
COSMO-SKYMED 4          
1 37216U 10060A   26178.97539475  .00000231  00000+0  35564-4 0  9991
2 37216  97.8886   2.4191 0001459  84.9578 275.1801 14.82153050846162
RESOURCESAT-2           
1 37387U 11015A   26178.92797210  .00000087  00000+0  59885-4 0  9990
2 37387  98.7640 246.2955 0010586 221.6440 138.3932 14.21602255787702
HAIYANG-2A              
1 37781U 11043A   26178.95928113 -.00000009  00000+0  36319-4 0  9992
2 37781  99.3393 181.3941 0004948  69.5031 290.6649 13.74024895748132
RASAT                   
1 37791U 11044D   26178.95601483  .00000342  00000+0  67781-4 0  9998
2 37791  98.0579 270.1887 0021020 154.6725 321.7931 14.68175433794766
SRMSAT                  
1 37841U 11058D   26178.81758627  .00000369  00000+0  56564-4 0  9993
2 37841  19.9735 355.1269 0011731 321.2874  66.8702 14.11577638759328
PLEIADES 1A             
1 38012U 11076F   26178.98598103  .00000147  00000+0  41440-4 0  9994
2 38012  98.1979 253.9437 0001765  89.2106  83.8086 14.58536657773568
ZIYUAN 1-02C (ZY 1-02C) 
1 38038U 11079A   26178.95012089  .00000285  00000+0  10813-3 0  9998
2 38038  98.4074 246.0336 0005127 278.1122 255.1399 14.38222562760752
ARIRANG-3 (KOMPSAT-3)   
1 38338U 12025B   26178.98157307  .00000428  00000+0  94199-4 0  9998
2 38338  98.1175 136.2554 0006806  82.5399 277.6576 14.62215236752927
EXACTVIEW-1 (ADS-1B)    
1 38709U 12039C   26178.84336898  .00000101  00000+0  62990-4 0  9996
2 38709  98.9789 296.4748 0011657 137.1539 223.0550 14.24987556724223
SPOT 6                  
1 38755U 12047A   26178.96831457  .00000166  00000+0  45668-4 0  9994
2 38755  98.2122 246.1512 0001325  75.7342 284.4004 14.58528126734620
PLEIADES 1B             
1 39019U 12068A   26178.91854286  .00000182  00000+0  49051-4 0  9999
2 39019  98.1950 253.8224 0001725  85.3314 274.8082 14.58566268722419
GOKTURK 2               
1 39030U 12073A   26178.93084119  .00001076  00000+0  16480-3 0  9992
2 39030  97.6817  15.8240 0001203  58.9335 301.1993 14.75555390726098
LANDSAT 8               
1 39084U 13008A   26178.94329229  .00000296  00000+0  75826-4 0  9998
2 39084  98.2299 248.9507 0001355  93.7004 266.4350 14.57101199699465
SARAL                   
1 39086U 13009A   26178.93449112  .00000081  00000+0  45537-4 0  9992
2 39086  98.5557   5.3655 0000755 223.9447 136.1677 14.32858429697143
GAOFEN-1                
1 39150U 13018A   26178.97349226  .00000865  00000+0  13114-3 0  9998
2 39150  97.9097 250.8224 0015938 228.5177 131.4666 14.76548832709834
VNREDSAT 1              
1 39160U 13021B   26178.94980435  .00000477  00000+0  97721-4 0  9999
2 39160  97.9081 231.9530 0001727  84.7501 275.3899 14.64867117701860
ARIRANG-5 (KOMPSAT-5)   
1 39227U 13042A   26178.94054616  .00002184  00000+0  16025-3 0  9993
2 39227  97.6188   5.4892 0005111  97.2731 262.9076 15.04518736705474
SKYSAT-A                
1 39418U 13066C   26178.64065279  .00002601  00000+0  15024-3 0  9997
2 39418  97.3811 227.7046 0019644 278.4995  81.4010 15.13027728690063
DUBAISAT-2              
1 39419U 13066D   26178.93701872  .00003667  00000+0  22767-3 0  9991
2 39419  97.4558 168.7995 0011139   6.3050 353.8317 15.10257317688015
GPM-CORE                
1 39574U 14009C   26178.82735511  .00010001  00000+0  21710-3 0  9993
2 39574  64.9722 272.4862 0011428 255.8241 104.1630 15.44791073699453
SENTINEL-1A             
1 39634U 14016A   26178.99605705  .00000058  00000+0  22018-4 0  9991
2 39634  98.1778 186.3708 0001374  83.5686 276.5670 14.59198286651593
KAZEOSAT 1              
1 39731U 14024A   26178.98445021  .00000000  00000+0  12911-4 0  9998
2 39731  98.3209 251.1633 0001224  75.8797 284.2529 14.42083396640113
